{"fetched_at":"2026-03-29T16:36:15Z","count":15609,"tles":[{"name":"STARLINK-32890","line1":"1 62896U 25024T   26087.66439980  .00034793  00000+0  12674-2 0  9999","line2":"2 62896  43.0012 217.7054 0001695 285.0031  75.0633 15.27591778 65174","category":"Starlink"}]}