{
  "norad_id": 62896,
  "name": "STARLINK-32890",
  "history": [
    {
      "epoch": "2026-03-28T15:56:44.142720Z",
      "apogee_km": 484.17679376260276,
      "perigee_km": 481.85086363167466,
      "latitude_deg": 3.4585639711039416e-06,
      "longitude_deg": 152.43987752849378,
      "height_km": 482.4898396130165,
      "semi_major_axis_km": 6861.150828697138,
      "eccentricity": 0.0001695,
      "inclination_deg": 43.0012,
      "raan_deg": 217.7054,
      "arg_perigee_deg": 285.0031,
      "mean_anomaly_deg": 75.0633,
      "mean_motion_rev_day": 15.27591778
    }
  ]
}